[{"OBJECT_NAME":"TEVEL2-6","OBJECT_ID":"2025-052F","EPOCH":"2026-03-09T15:35:24.554400","MEAN_MOTION":15.30760889,"ECCENTRICITY":0.0004769,"INCLINATION":97.4016,"RA_OF_ASC_NODE":325.0381,"ARG_OF_PERICENTER":95.6604,"MEAN_ANOMALY":264.5181,"EPHEMERIS_TYPE":0,"CLASSIFICATION_TYPE":"U","NORAD_CAT_ID":63215,"ELEMENT_SET_NO":999,"REV_AT_EPOCH":5486,"BSTAR":0.00070909,"MEAN_MOTION_DOT":0.00021046,"MEAN_MOTION_DDOT":0},{"OBJECT_NAME":"STARLINK-34838","OBJECT_ID":"2025-189W","EPOCH":"2026-03-09T16:49:45.752736","MEAN_MOTION":15.30201971,"ECCENTRICITY":0.00010308,"INCLINATION":53.1606,"RA_OF_ASC_NODE":207.0316,"ARG_OF_PERICENTER":73.3677,"MEAN_ANOMALY":286.7437,"EPHEMERIS_TYPE":0,"CLASSIFICATION_TYPE":"U","NORAD_CAT_ID":65343,"ELEMENT_SET_NO":999,"REV_AT_EPOCH":3111,"BSTAR":0.00068696695,"MEAN_MOTION_DOT":0.00020043,"MEAN_MOTION_DDOT":0}]
